#aV2006  5 13  0  0   .00000000      96 DD+AD WGS84 FIT  NGA
## 1374 518400.00000000   900.00000000 53868  .0000000000000
+   29     1  2  3  4  5  6  7  8  9 10 11 13 14 15 16 17 18
+         19 20 21 22 23 24 25 26 27 28 29 30  0  0  0  0  0
+          0  0  0  0  0  0  0  0  0  0  0  0  0  0  0  0  0
+          0  0  0  0  0  0  0  0  0  0  0  0  0  0  0  0  0
+          0  0  0  0  0  0  0  0  0  0  0  0  0  0  0  0  0
++         0  0  0  0  0  0  0  0  0  0  0  0  0  0  0  0  0
++         0  0  0  0  0  0  0  0  0  0  0  0  0  0  0  0  0
++         0  0  0  0  0  0  0  0  0  0  0  0  0  0  0  0  0
++         0  0  0  0  0  0  0  0  0  0  0  0  0  0  0  0  0
++         0  0  0  0  0  0  0  0  0  0  0  0  0  0  0  0  0
%c cc cc ccc ccc cccc cccc cccc cccc ccccc ccccc ccccc ccccc
%c cc cc ccc ccc cccc cccc cccc cccc ccccc ccccc ccccc ccccc
%f  0.0000000  0.000000000  0.00000000000  0.000000000000000
%f  0.0000000  0.000000000  0.00000000000  0.000000000000000
%i    0    0    0    0      0      0      0      0         0
%i    0    0    0    0      0      0      0      0         0
/*      NGA, ST. LOUIS,MO.                                  
/*   EPHEMERIS COMPUTED FROM  3 DAYS OF DATA                
/* CCCCCCCCCCCCCCCCCCCCCCCCCCCCCCCCCCCCCCCCCCCCCCCCCCCCCCCCC
/* CCCCCCCCCCCCCCCCCCCCCCCCCCCCCCCCCCCCCCCCCCCCCCCCCCCCCCCCC
*  2006  5 13  4 30   .00000000                                                 
P  1  13975.244517  -6040.446427 -21563.697246     52.545212                    
V  1   1618.187499  27730.483007  -6703.784592       .022980                    
P  2 -23312.324723  11257.711284  -5695.825712     -3.156664                    
V  2   3900.528991  -6565.435846 -30543.981469       .026235                    
P  3  12975.562138 -11793.316610  19706.436660     98.109339                    
V  3   5952.288952  24943.061085  11223.805617       .031290                    
P  4 -22331.662274   2456.089252 -14470.375302    228.714822                    
V  4  13977.274138 -11845.365652 -23293.837769       .093018                    
P  5   -327.184143  16425.088596 -21089.967785    -14.211762                    
V  5 -24920.106643  -8714.860370  -6292.423605       .549177                    
P  6   7011.694649  25005.561256   5572.680065    521.478005                    
V  6  -2769.415741   7238.107094 -30117.877015       .177171                    
P  7  15998.086142   7841.323776  20001.830506    536.487325                    
V  7   2122.052262  24734.927554 -11726.337019       .026127                    
P  8 -17246.856636  -4871.450674  19592.209199    -65.529235                    
V  8  20654.821120 -14162.872566  14161.187950      -.012348                    
P  9 -11509.277723  20159.536438 -13184.189593     19.970118                    
V  9 -14167.089476   7735.725622  25527.991870       .015528                    
P 10 -18554.859334   4737.310541  18439.369024     83.344442                    
V 10 -20471.209698 -11535.173892 -17239.656134       .005370                    
P 11   8566.562527 -21692.208732 -12550.993497    326.724024                    
V 11  14475.373710  -8097.320182  24252.568907       .024621                    
P 13  -5642.344494 -25150.469088   6444.967532     61.382254                    
V 13   1239.958080  -8343.912252 -31002.436482       .028410                    
P 14  13916.896729  10763.140833 -19848.500249    -14.139884                    
V 14    884.859913  25263.444969  14224.477861       .007485                    
P 15  17341.882234   5584.359922  19303.093276    611.716119                    
V 15 -20747.642273  13520.209143  14210.704842       .060461                    
P 16  22177.709724   -706.819499  14765.077292     42.480138                    
V 16  15842.623978   9848.691856 -23360.446133       .023999                    
P 17 -14287.788630 -11952.567641 -18978.317747     91.865304                    
V 17   -612.702790 -24075.973831  15539.120464       .032077                    
P 18  16476.934413  17737.703806  11366.394160   -235.016514                    
V 18 -13587.773638  -4641.510998  26874.111182      -.016463                    
P 19   8321.356587 -21934.266473  12516.399776    -11.078906                    
V 19   2711.123073  15691.169952  25962.124618       .018366                    
P 20  -1568.652850 -16746.360954 -20658.786213    -27.004254                    
V 20  23997.708379  10098.682161 -10022.225573       .006215                    
P 21   9690.400226  12311.994933  21519.653270     28.265397                    
V 21 -22999.022672  14596.818010   1482.746230       .026914                    
P 22  23715.511686  11907.771275  -1069.008008     95.220597                    
V 22    -62.530612   3362.921657  31588.430214       .039548                    
P 23   1570.529173 -25889.339422  -5396.202094    141.672429                    
V 23   3172.319917   6518.344089 -31040.096916      -.008763                    
P 24 -14925.820457  -7580.624945 -20448.569599      5.552364                    
V 24  22027.722271 -14629.097296 -10279.094040       .027605                    
P 25  22423.874077  -8444.032337 -11201.482090     34.497511                    
V 25  -9661.839820  11508.664794 -26923.332579       .991848                    
P 26  -8801.097514  19423.748543  15046.050573   -113.535445                    
V 26  -2981.236026 -19855.847968  23866.444613      -.114189                    
P 27  -9183.685986 -12551.676862  22128.848718     48.487702                    
V 27  21103.339801 -16333.508812   -849.901375       .017276                    
P 28 -22878.016603 -13612.984110   2896.942852     27.519956                    
V 28   4068.352332   -789.164675  31228.028979      -.007779                    
P 29 -10533.803387  16427.297903  18119.065620    603.610839                    
V 29  -3276.003866 -22374.464700  18891.572550       .065667                    
P 30  11381.620818  17835.918631 -16406.825734    237.848953                    
V 30 -19467.114013  -6163.809292 -20438.928909       .267571                    
EOF
